{
"type": "FeatureCollection",
"name": "wayanad_relocation_flows",
"crs": { "type": "name", "properties": { "name": "urn:ogc:def:crs:OGC:1.3:CRS84" } },
"features": [
{ "type": "Feature", "properties": { "from_cell": "WAY_HEX_0136", "to_site": "SAFE_SITE_007", "people_moved": 596, "distance_km": 40.52, "origin_risk": 70.15, "destination_suitability": 81.46 }, "geometry": { "type": "LineString", "coordinates": [ [ 75.954871383621509, 11.799733446297974 ], [ 76.267660439009958, 11.601776398391811 ] ] } },
{ "type": "Feature", "properties": { "from_cell": "WAY_HEX_0136", "to_site": "SAFE_SITE_010", "people_moved": 830, "distance_km": 32.67, "origin_risk": 70.15, "destination_suitability": 75.75 }, "geometry": { "type": "LineString", "coordinates": [ [ 75.954871383621509, 11.799733446297974 ], [ 76.235250070071331, 11.695294314300927 ] ] } },
{ "type": "Feature", "properties": { "from_cell": "WAY_HEX_0187", "to_site": "SAFE_SITE_000", "people_moved": 872, "distance_km": 48.97, "origin_risk": 70.81, "destination_suitability": 66.6 }, "geometry": { "type": "LineString", "coordinates": [ [ 75.808904454322004, 11.742560329746649 ], [ 76.183930363914357, 11.498814871394091 ] ] } },
{ "type": "Feature", "properties": { "from_cell": "WAY_HEX_0214", "to_site": "SAFE_SITE_007", "people_moved": 1231, "distance_km": 52.41, "origin_risk": 75.41, "destination_suitability": 81.46 }, "geometry": { "type": "LineString", "coordinates": [ [ 75.822647017071532, 11.781351877346433 ], [ 76.267660439009958, 11.601776398391811 ] ] } },
{ "type": "Feature", "properties": { "from_cell": "WAY_HEX_0253", "to_site": "SAFE_SITE_017", "people_moved": 704, "distance_km": 47.67, "origin_risk": 70.64, "destination_suitability": 85.46 }, "geometry": { "type": "LineString", "coordinates": [ [ 75.939682295034402, 11.88374245411908 ], [ 76.317680287360986, 11.666739142058201 ] ] } },
{ "type": "Feature", "properties": { "from_cell": "WAY_HEX_0253", "to_site": "SAFE_SITE_010", "people_moved": 709, "distance_km": 38.36, "origin_risk": 70.64, "destination_suitability": 75.75 }, "geometry": { "type": "LineString", "coordinates": [ [ 75.939682295034402, 11.88374245411908 ], [ 76.235250070071331, 11.695294314300927 ] ] } },
{ "type": "Feature", "properties": { "from_cell": "WAY_HEX_0285", "to_site": "SAFE_SITE_026", "people_moved": 895, "distance_km": 36.42, "origin_risk": 73.49, "destination_suitability": 75.58 }, "geometry": { "type": "LineString", "coordinates": [ [ 76.004742143278293, 11.884134043327968 ], [ 76.301476912964702, 11.73258582810389 ] ] } },
{ "type": "Feature", "properties": { "from_cell": "WAY_HEX_0285", "to_site": "SAFE_SITE_025", "people_moved": 454, "distance_km": 38.49, "origin_risk": 73.49, "destination_suitability": 70.16 }, "geometry": { "type": "LineString", "coordinates": [ [ 76.004742143278293, 11.884134043327968 ], [ 76.317947013324698, 11.723114326300982 ] ] } },
{ "type": "Feature", "properties": { "from_cell": "WAY_HEX_0299", "to_site": "SAFE_SITE_026", "people_moved": 174, "distance_km": 31.18, "origin_risk": 71.0, "destination_suitability": 75.58 }, "geometry": { "type": "LineString", "coordinates": [ [ 76.054282263918083, 11.874556705843098 ], [ 76.301476912964702, 11.73258582810389 ] ] } },
{ "type": "Feature", "properties": { "from_cell": "WAY_HEX_0299", "to_site": "SAFE_SITE_036", "people_moved": 1252, "distance_km": 19.83, "origin_risk": 71.0, "destination_suitability": 72.97 }, "geometry": { "type": "LineString", "coordinates": [ [ 76.054282263918083, 11.874556705843098 ], [ 76.219188436669469, 11.798718103743679 ] ] } },
{ "type": "Feature", "properties": { "from_cell": "WAY_HEX_0311", "to_site": "SAFE_SITE_017", "people_moved": 1033, "distance_km": 47.94, "origin_risk": 72.14, "destination_suitability": 85.46 }, "geometry": { "type": "LineString", "coordinates": [ [ 75.955263493062347, 11.912496790835489 ], [ 76.317680287360986, 11.666739142058201 ] ] } },
{ "type": "Feature", "properties": { "from_cell": "WAY_HEX_0311", "to_site": "SAFE_SITE_026", "people_moved": 428, "distance_km": 42.65, "origin_risk": 72.14, "destination_suitability": 75.58 }, "geometry": { "type": "LineString", "coordinates": [ [ 75.955263493062347, 11.912496790835489 ], [ 76.301476912964702, 11.73258582810389 ] ] } }
]
}
